
# Worst residual: 44.20 km
# MJD 60482.000000 (2024 Jun 21  0:00)
A117FFg = A117ydL
1 79920U 24999ZZJ 24173.49919926  .00000000  00000-0  00000-0 0 24353
2 79920 015.6291 298.2333 6092802 168.7206 206.3971 00.83251552    09

# Worst residual: 33.86 km
# MJD 60483.000000 (2024 Jun 22  0:00)
A117FFg = A117ydL
1 79920U 24999ZZJ 24174.49919926  .00000000  00000-0  00000-0 0 24354
2 79920 015.5390 298.2713 6114515 169.2189 146.0501 00.83227561    04

# Worst residual: 100.99 km
# MJD 60484.000000 (2024 Jun 23  0:00)
A117FFg = A117ydL
1 79920U 24999ZZJ 24175.49919926  .00000000  00000-0  00000-0 0 24355
2 79920 015.4573 298.2727 6144429 169.6498 085.8152 00.83390371    07

# Worst residual: 92.86 km
# MJD 60485.000000 (2024 Jun 24  0:00)
A117FFg = A117ydL
1 79920U 24999ZZJ 24176.49919926  .00000000  00000-0  00000-0 0 24356
2 79920 015.3454 298.2867 6163832 170.0943 025.3717 00.83586890    08

# Worst residual: 103.60 km
# MJD 60486.000000 (2024 Jun 25  0:00)
A117FFg = A117ydL
1 79920U 24999ZZJ 24177.49919926  .00000000  00000-0  00000-0 0 24357
2 79920 015.2302 298.3504 6186047 170.5479 324.7011 00.83583454    06

# Worst residual: 82.17 km
# MJD 60487.000000 (2024 Jun 26  0:00)
A117FFg = A117ydL
1 79920U 24999ZZJ 24178.49919926  .00000000  00000-0  00000-0 0 24358
2 79920 015.1406 298.4230 6204741 170.8741 264.2802 00.83403695    08

# Worst residual: 44.68 km
# MJD 60488.000000 (2024 Jun 27  0:00)
A117FFg = A117ydL
1 79920U 24999ZZJ 24179.49919926  .00000000  00000-0  00000-0 0 24359
2 79920 015.0506 298.4692 6211728 171.2754 203.9414 00.83249489    00

# Worst residual: 38.75 km
# MJD 60489.000000 (2024 Jun 28  0:00)
A117FFg = A117ydL
1 79920U 24999ZZJ 24180.49919926  .00000000  00000-0  00000-0 0 24351
2 79920 014.9546 298.4819 6230631 171.7822 143.6009 00.83246399    05

# Worst residual: 100.12 km
# MJD 60490.000000 (2024 Jun 29  0:00)
A117FFg = A117ydL
1 79920U 24999ZZJ 24181.49919926  .00000000  00000-0  00000-0 0 24352
2 79920 014.8722 298.4529 6257403 172.2237 083.3727 00.83407078    00

# Worst residual: 81.37 km
# MJD 60491.000000 (2024 Jun 30  0:00)
A117FFg = A117ydL
1 79920U 24999ZZJ 24182.49919926  .00000000  00000-0  00000-0 0 24353
2 79920 014.7519 298.4676 6273065 172.6542 022.9366 00.83589071    03

# Worst residual: 103.01 km
# MJD 60492.000000 (2024 Jul  1  0:00)
A117FFg = A117ydL
1 79920U 24999ZZJ 24183.49919926  .00000000  00000-0  00000-0 0 24354
2 79920 014.6301 298.5364 6293865 173.0872 322.2881 00.83568205    01

# Worst residual: 79.93 km
# MJD 60493.000000 (2024 Jul  2  0:00)
A117FFg = A117ydL
1 79920U 24999ZZJ 24184.49919926  .00000000  00000-0  00000-0 0 24355
2 79920 014.5372 298.5937 6309755 173.4232 261.8831 00.83390833    07

# Worst residual: 40.96 km
# MJD 60494.000000 (2024 Jul  3  0:00)
A117FFg = A117ydL
1 79920U 24999ZZJ 24185.49919926  .00000000  00000-0  00000-0 0 24356
2 79920 014.4327 298.6269 6314314 173.8520 201.5256 00.83250257    03

# Worst residual: 46.92 km
# MJD 60495.000000 (2024 Jul  4  0:00)
A117FFg = A117ydL
1 79920U 24999ZZJ 24186.49919926  .00000000  00000-0  00000-0 0 24357
2 79920 014.3311 298.6346 6331400 174.3551 141.2022 00.83257632    01

# Worst residual: 92.17 km
# MJD 60496.000000 (2024 Jul  5  0:00)
A117FFg = A117ydL
1 79920U 24999ZZJ 24187.49919926  .00000000  00000-0  00000-0 0 24358
2 79920 014.2398 298.6021 6354617 174.7900 080.9732 00.83427616    00

# Worst residual: 76.30 km
# MJD 60497.000000 (2024 Jul  6  0:00)
A117FFg = A117ydL
1 79920U 24999ZZJ 24188.49919926  .00000000  00000-0  00000-0 0 24359
2 79920 014.1106 298.5853 6366197 175.2595 020.5097 00.83602961    02

# Worst residual: 107.34 km
# MJD 60498.000000 (2024 Jul  7  0:00)
A117FFg = A117ydL
1 79920U 24999ZZJ 24189.49919926  .00000000  00000-0  00000-0 0 24350
2 79920 013.9820 298.6257 6383443 175.7068 319.8786 00.83556219    07

# Worst residual: 75.96 km
# MJD 60499.000000 (2024 Jul  8  0:00)
A117FFg = A117ydL
1 79920U 24999ZZJ 24190.49919926  .00000000  00000-0  00000-0 0 24352
2 79920 013.8797 298.6858 6394800 176.0341 259.5014 00.83374569    03

# Worst residual: 40.64 km
# MJD 60500.000000 (2024 Jul  9  0:00)
A117FFg = A117ydL
1 79920U 24999ZZJ 24191.49919926  .00000000  00000-0  00000-0 0 24353
2 79920 013.7749 298.7179 6396892 176.4627 199.1637 00.83243616    08

# Worst residual: 54.35 km
# MJD 60501.000000 (2024 Jul 10  0:00)
A117FFg = A117ydL
1 79920U 24999ZZJ 24192.49919926  .00000000  00000-0  00000-0 0 24354
2 79920 013.6640 298.7009 6412924 176.9813 138.8523 00.83275372    04

# Worst residual: 90.86 km
# MJD 60502.000000 (2024 Jul 11  0:00)
A117FFg = A117ydL
1 79920U 24999ZZJ 24193.49919926  .00000000  00000-0  00000-0 0 24355
2 79920 013.5537 298.6347 6430879 177.4450 078.6285 00.83451836    01

# Worst residual: 68.30 km
# MJD 60503.000000 (2024 Jul 12  0:00)
A117FFg = A117ydL
1 79920U 24999ZZJ 24194.49919926  .00000000  00000-0  00000-0 0 24356
2 79920 013.4242 298.6125 6440063 177.9183 018.1401 00.83614783    02

# Worst residual: 109.61 km
# MJD 60504.000000 (2024 Jul 13  0:00)
A117FFg = A117ydL
1 79920U 24999ZZJ 24195.49919926  .00000000  00000-0  00000-0 0 24357
2 79920 013.2847 298.6320 6453845 178.3793 317.5252 00.83540950    06

# Worst residual: 73.19 km
# MJD 60505.000000 (2024 Jul 14  0:00)
A117FFg = A117ydL
1 79920U 24999ZZJ 24196.49919926  .00000000  00000-0  00000-0 0 24358
2 79920 013.1748 298.6789 6460677 178.7153 257.1755 00.83357524    09

# Worst residual: 36.96 km
# MJD 60506.000000 (2024 Jul 15  0:00)
A117FFg = A117ydL
1 79920U 24999ZZJ 24197.49919926  .00000000  00000-0  00000-0 0 24359
2 79920 013.0599 298.6851 6461099 179.1741 196.8488 00.83248886    01

# Worst residual: 61.81 km
# MJD 60507.000000 (2024 Jul 16  0:00)
A117FFg = A117ydL
1 79920U 24999ZZJ 24198.49919926  .00000000  00000-0  00000-0 0 24350
2 79920 012.9424 298.6540 6474439 179.6968 136.5421 00.83289645    05

# Worst residual: 85.60 km
# MJD 60508.000000 (2024 Jul 17  0:00)
A117FFg = A117ydL
1 79920U 24999ZZJ 24199.49919926  .00000000  00000-0  00000-0 0 24351
2 79920 012.8273 298.5524 6488756 180.1832 076.3198 00.83469725    02
